{
  "type": "FeatureCollection",
  "features": [
    {
      "type": "Feature",
      "properties": {
        "norad_id": 43719,
        "name": "HYSIS",
        "group": "resource",
        "lat": 33.5177311461306,
        "lon": -125.87539736587767,
        "alt_km": 631.5093609791202,
        "timestamp": "2025-12-11T18:59:45.724020+00:00",
        "meta_object_name": "HYSIS",
        "meta_object_id": "2018-096A",
        "meta_epoch": "2025-12-11T06:58:09.615648",
        "meta_mean_motion": 14.78640996,
        "meta_eccentricity": 0.00014827,
        "meta_inclination": 98.0093,
        "meta_ra_of_asc_node": 48.275,
        "meta_arg_of_pericenter": 59.1716,
        "meta_mean_anomaly": 300.964,
        "meta_ephemeris_type": 0,
        "meta_classification_type": "U",
        "meta_norad_cat_id": 43719,
        "meta_element_set_no": 999,
        "meta_rev_at_epoch": 37965,
        "meta_bstar": 0.00039747608,
        "meta_mean_motion_dot": 2.86e-05,
        "meta_mean_motion_ddot": 0,
        "tle_line1": "1 43719U 18096A   25345.29038907  .00002860  00000+0  39748-3 0  9994",
        "tle_line2": "2 43719  98.0093  48.2750 0001482  59.1716 300.9640 14.78640996379651"
      },
      "geometry": {
        "type": "Point",
        "coordinates": [
          -125.87539736587767,
          33.5177311461306
        ]
      }
    },
    {
      "type": "Feature",
      "properties": {
        "norad_id": 43783,
        "name": "KAZSTSAT",
        "group": "resource",
        "lat": -47.94053650492335,
        "lon": 29.362755987914714,
        "alt_km": 571.955921605093,
        "timestamp": "2025-12-11T18:59:45.724030+00:00",
        "meta_object_name": "KAZSTSAT",
        "meta_object_id": "2018-099AB",
        "meta_epoch": "2025-12-11T01:35:34.662624",
        "meta_mean_motion": 14.99344949,
        "meta_eccentricity": 0.00059901,
        "meta_inclination": 97.4559,
        "meta_ra_of_asc_node": 20.3232,
        "meta_arg_of_pericenter": 337.2682,
        "meta_mean_anomaly": 22.8276,
        "meta_ephemeris_type": 0,
        "meta_classification_type": "U",
        "meta_norad_cat_id": 43783,
        "meta_element_set_no": 999,
        "meta_rev_at_epoch": 38311,
        "meta_bstar": 0.00018724349,
        "meta_mean_motion_dot": 2.234e-05,
        "meta_mean_motion_ddot": 0,
        "tle_line1": "1 43783U 18099AB  25345.06637341  .00002234  00000+0  18724-3 0  9996",
        "tle_line2": "2 43783  97.4559  20.3232 0005990 337.2682  22.8276 14.99344949383111"
      },
      "geometry": {
        "type": "Point",
        "coordinates": [
          29.362755987914714,
          -47.94053650492335
        ]
      }
    },
    {
      "type": "Feature",
      "properties": {
        "norad_id": 43831,
        "name": "SAUDISAT 5A",
        "group": "resource",
        "lat": -81.28704748468591,
        "lon": 103.19944538455972,
        "alt_km": 503.9610278057662,
        "timestamp": "2025-12-11T18:59:45.724041+00:00",
        "meta_object_name": "SAUDISAT 5A",
        "meta_object_id": "2018-102A",
        "meta_epoch": "2025-12-11T06:46:37.267392",
        "meta_mean_motion": 15.25641937,
        "meta_eccentricity": 0.00117995,
        "meta_inclination": 97.3352,
        "meta_ra_of_asc_node": 45.5012,
        "meta_arg_of_pericenter": 80.7426,
        "meta_mean_anomaly": 279.5147,
        "meta_ephemeris_type": 0,
        "meta_classification_type": "U",
        "meta_norad_cat_id": 43831,
        "meta_element_set_no": 999,
        "meta_rev_at_epoch": 38700,
        "meta_bstar": 0.00083946451,
        "meta_mean_motion_dot": 0.00021364,
        "meta_mean_motion_ddot": 0,
        "tle_line1": "1 43831U 18102A   25345.28237578  .00021364  00000+0  83946-3 0  9990",
        "tle_line2": "2 43831  97.3352  45.5012 0011799  80.7426 279.5147 15.25641937387007"
      },
      "geometry": {
        "type": "Point",
        "coordinates": [
          103.19944538455972,
          -81.28704748468591
        ]
      }
    },
    {
      "type": "Feature",
      "properties": {
        "norad_id": 43833,
        "name": "SAUDISAT 5B",
        "group": "resource",
        "lat": -34.123981182960705,
        "lon": 53.75193877559201,
        "alt_km": 497.7084530401971,
        "timestamp": "2025-12-11T18:59:45.724052+00:00",
        "meta_object_name": "SAUDISAT 5B",
        "meta_object_id": "2018-102C",
        "meta_epoch": "2025-12-11T06:33:24.372000",
        "meta_mean_motion": 15.25993936,
        "meta_eccentricity": 0.00124788,
        "meta_inclination": 97.3446,
        "meta_ra_of_asc_node": 48.2282,
        "meta_arg_of_pericenter": 83.0053,
        "meta_mean_anomaly": 277.2604,
        "meta_ephemeris_type": 0,
        "meta_classification_type": "U",
        "meta_norad_cat_id": 43833,
        "meta_element_set_no": 999,
        "meta_rev_at_epoch": 38711,
        "meta_bstar": 0.00082798963,
        "meta_mean_motion_dot": 0.000213,
        "meta_mean_motion_ddot": 0,
        "tle_line1": "1 43833U 18102C   25345.27319875  .00021300  00000+0  82799-3 0  9997",
        "tle_line2": "2 43833  97.3446  48.2282 0012478  83.0053 277.2604 15.25993936387113"
      },
      "geometry": {
        "type": "Point",
        "coordinates": [
          53.75193877559201,
          -34.123981182960705
        ]
      }
    },
    {
      "type": "Feature",
      "properties": {
        "norad_id": 44622,
        "name": "GAOFEN-10R",
        "group": "resource",
        "lat": 55.38683019669517,
        "lon": -78.5047555893967,
        "alt_km": 609.80477467113,
        "timestamp": "2025-12-11T18:59:45.724063+00:00",
        "meta_object_name": "GAOFEN-10R",
        "meta_object_id": "2019-066A",
        "meta_epoch": "2025-12-11T07:24:24.894144",
        "meta_mean_motion": 14.82792183,
        "meta_eccentricity": 0.00079405,
        "meta_inclination": 98.0276,
        "meta_ra_of_asc_node": 292.8093,
        "meta_arg_of_pericenter": 46.0136,
        "meta_mean_anomaly": 314.1731,
        "meta_ephemeris_type": 0,
        "meta_classification_type": "U",
        "meta_norad_cat_id": 44622,
        "meta_element_set_no": 999,
        "meta_rev_at_epoch": 33453,
        "meta_bstar": 0.000658108,
        "meta_mean_motion_dot": 5.272e-05,
        "meta_mean_motion_ddot": 0,
        "tle_line1": "1 44622U 19066A   25345.30862146  .00005272  00000+0  65811-3 0  9998",
        "tle_line2": "2 44622  98.0276 292.8093 0007940  46.0136 314.1731 14.82792183334538"
      },
      "geometry": {
        "type": "Point",
        "coordinates": [
          -78.5047555893967,
          55.38683019669517
        ]
      }
    },
    {
      "type": "Feature",
      "properties": {
        "norad_id": 44804,
        "name": "CARTOSAT-3",
        "group": "resource",
        "lat": 80.5414956775589,
        "lon": -82.7697026995473,
        "alt_km": 490.8047867522246,
        "timestamp": "2025-12-11T18:59:45.724074+00:00",
        "meta_object_name": "CARTOSAT-3",
        "meta_object_id": "2019-081A",
        "meta_epoch": "2025-12-11T05:55:54.095232",
        "meta_mean_motion": 15.19354787,
        "meta_eccentricity": 0.00139486,
        "meta_inclination": 97.4581,
        "meta_ra_of_asc_node": 44.8496,
        "meta_arg_of_pericenter": 91.8478,
        "meta_mean_anomaly": 268.4355,
        "meta_ephemeris_type": 0,
        "meta_classification_type": "U",
        "meta_norad_cat_id": 44804,
        "meta_element_set_no": 999,
        "meta_rev_at_epoch": 33493,
        "meta_bstar": 0.00042959846,
        "meta_mean_motion_dot": 9.04e-05,
        "meta_mean_motion_ddot": 0,
        "tle_line1": "1 44804U 19081A   25345.24715388  .00009040  00000+0  42960-3 0  9992",
        "tle_line2": "2 44804  97.4581  44.8496 0013948  91.8478 268.4355 15.19354787334938"
      },
      "geometry": {
        "type": "Point",
        "coordinates": [
          -82.7697026995473,
          80.5414956775589
        ]
      }
    },
    {
      "type": "Feature",
      "properties": {
        "norad_id": 44819,
        "name": "GAOFEN-12 01",
        "group": "resource",
        "lat": -29.243639350092305,
        "lon": -3.4938218065191218,
        "alt_km": 633.1771080999724,
        "timestamp": "2025-12-11T18:59:45.724084+00:00",
        "meta_object_name": "GAOFEN-12 01",
        "meta_object_id": "2019-082A",
        "meta_epoch": "2025-12-11T06:09:14.533344",
        "meta_mean_motion": 14.80654453,
        "meta_eccentricity": 0.00012474,
        "meta_inclination": 97.8127,
        "meta_ra_of_asc_node": 351.5763,
        "meta_arg_of_pericenter": 243.0169,
        "meta_mean_anomaly": 117.0916,
        "meta_ephemeris_type": 0,
        "meta_classification_type": "U",
        "meta_norad_cat_id": 44819,
        "meta_element_set_no": 999,
        "meta_rev_at_epoch": 32628,
        "meta_bstar": 0.00010932629,
        "meta_mean_motion_dot": 7.89e-06,
        "meta_mean_motion_ddot": 0,
        "tle_line1": "1 44819U 19082A   25345.25641821  .00000789  00000+0  10933-3 0  9996",
        "tle_line2": "2 44819  97.8127 351.5763 0001247 243.0169 117.0916 14.80654453326287"
      },
      "geometry": {
        "type": "Point",
        "coordinates": [
          -3.4938218065191218,
          -29.243639350092305
        ]
      }
    }
  ]
}